[{"OBJECT_NAME":"STARLINK-4734","OBJECT_ID":"2022-111T","EPOCH":"2026-03-09T20:39:07.514496","MEAN_MOTION":15.08843891,"ECCENTRICITY":0.0001189,"INCLINATION":53.2168,"RA_OF_ASC_NODE":273.2353,"ARG_OF_PERICENTER":89.4809,"MEAN_ANOMALY":270.632,"EPHEMERIS_TYPE":0,"CLASSIFICATION_TYPE":"U","NORAD_CAT_ID":53790,"ELEMENT_SET_NO":999,"REV_AT_EPOCH":19372,"BSTAR":3.8968415e-5,"MEAN_MOTION_DOT":3.32e-6,"MEAN_MOTION_DDOT":0},{"OBJECT_NAME":"PACE","OBJECT_ID":"2014-033N","EPOCH":"2026-03-09T22:47:44.809152","MEAN_MOTION":15.09745465,"ECCENTRICITY":0.00061206,"INCLINATION":98.125,"RA_OF_ASC_NODE":67.7953,"ARG_OF_PERICENTER":179.3374,"MEAN_ANOMALY":180.7863,"EPHEMERIS_TYPE":0,"CLASSIFICATION_TYPE":"U","NORAD_CAT_ID":40022,"ELEMENT_SET_NO":999,"REV_AT_EPOCH":63805,"BSTAR":0.00051174262,"MEAN_MOTION_DOT":8.193e-5,"MEAN_MOTION_DDOT":0}]
